HAWK-11B                
1 62379U 24247C   26068.44730104  .00009093  00000+0  32842-3 0  9993
2 62379  45.0161 115.7610 0004690 333.0326  27.0314 15.28847070 67738
STARLINK-35803          
1 66568U 25268M   26068.09958189  .00042377  00000+0  15410-2 0  9990
2 66568  43.0033 350.0373 0001878 251.0604 109.0044 15.27571654 17873
